CENTAURI-1              
1 43809U 18099BD  26192.68610958  .00003399  00000+0  17705-3 0  9990
2 43809  97.4214 243.8810 0012720 238.2570 121.7424 15.16603436416218
CENTAURI-6              
1 59451U 24066K   26192.21460007  .00002689  00000+0  19815-3 0  9993
2 59451  45.6056 128.9946 0001495 243.6650 116.4081 15.06011924123743
CENTAURI-7              
1 62708U 25009DD  26192.77817625  .00002608  00000+0  22604-3 0  9994
2 62708  97.7101 272.7412 0002865 108.8291 251.3242 14.97960927 81142
