{"fetched_at":"2026-07-12T05:52:49.520Z","source":"https://celestrak.org/NORAD/elements/gp.php?NAME=CENTAURI&FORMAT=JSON","constellation":"myriota","records":[{"OBJECT_NAME":"CENTAURI-1","OBJECT_ID":"2018-099BD","EPOCH":"2026-07-11T16:27:59.866848","CLASSIFICATION_TYPE":"U","MEAN_MOTION":15.16603436,"ECCENTRICITY":0.001272,"INCLINATION":97.4214,"RA_OF_ASC_NODE":243.881,"ARG_OF_PERICENTER":238.257,"MEAN_ANOMALY":121.7424,"EPHEMERIS_TYPE":0,"NORAD_CAT_ID":43809,"ELEMENT_SET_NO":999,"REV_AT_EPOCH":41621,"BSTAR":0.00017705,"MEAN_MOTION_DOT":0.00003399,"MEAN_MOTION_DDOT":0},{"OBJECT_NAME":"CENTAURI-6","OBJECT_ID":"2024-066K","EPOCH":"2026-07-11T05:09:01.446048","CLASSIFICATION_TYPE":"U","MEAN_MOTION":15.06011924,"ECCENTRICITY":0.00014955,"INCLINATION":45.6056,"RA_OF_ASC_NODE":128.9946,"ARG_OF_PERICENTER":243.665,"MEAN_ANOMALY":116.4081,"EPHEMERIS_TYPE":0,"NORAD_CAT_ID":59451,"ELEMENT_SET_NO":999,"REV_AT_EPOCH":12374,"BSTAR":0.00019815379,"MEAN_MOTION_DOT":0.00002689,"MEAN_MOTION_DDOT":0},{"OBJECT_NAME":"CENTAURI-7","OBJECT_ID":"2025-009DD","EPOCH":"2026-07-11T18:40:34.428000","CLASSIFICATION_TYPE":"U","MEAN_MOTION":14.97960927,"ECCENTRICITY":0.0002865,"INCLINATION":97.7101,"RA_OF_ASC_NODE":272.7412,"ARG_OF_PERICENTER":108.8291,"MEAN_ANOMALY":251.3242,"EPHEMERIS_TYPE":0,"NORAD_CAT_ID":62708,"ELEMENT_SET_NO":999,"REV_AT_EPOCH":8114,"BSTAR":0.00022604,"MEAN_MOTION_DOT":0.00002608,"MEAN_MOTION_DDOT":0}]}
